NORAD_CAT_ID,OBJECT_NAME,OBJECT_TYPE,EPOCH,MEAN_MOTION,ECCENTRICITY,INCLINATION,RA_OF_ASC_NODE,ARG_OF_PERICENTER,MEAN_ANOMALY,BSTAR,MEAN_MOTION_DOT,MEAN_MOTION_DDOT,TLE_LINE0,TLE_LINE1,TLE_LINE2,SEMIMAJOR_AXIS,PERIOD,APOGEE,PERIGEE,DECAYED
55288.0,STARLINK-5311,PAYLOAD,2024-06-03 05:11:45,14.98329237,0.0003266,69.9993,209.387,269.9756,90.1029,1.5004e-05,8.6e-07,0.0,0 STARLINK-5311,1 55288U 23010V   24155.21650266  .00000086  00000-0  15004-4 0  9997,2 55288  69.9993 209.3870 0003266 269.9756  90.1029 14.98329237 76423,6950.195,96.107,574.33,569.79,0.0
55288.0,STARLINK-5311,PAYLOAD,2024-06-03 11:36:18,14.98330356,0.0003283,69.9993,208.7137,270.2563,89.822,2.5683e-05,2.13e-06,0.0,0 STARLINK-5311,1 55288U 23010V   24155.48354181  .00000213  00000-0  25683-4 0  9999,2 55288  69.9993 208.7137 0003283 270.2563  89.8220 14.98330356 76772,6950.192,96.107,574.339,569.775,0.0
55288.0,STARLINK-5311,PAYLOAD,2024-06-03 21:13:06,14.98330399,0.0003298,69.9992,207.7034,270.4897,89.5884,3.4939e-05,3.24e-06,0.0,0 STARLINK-5311,1 55288U 23010V   24155.88410139  .00000324  00000-0  34939-4 0  9996,2 55288  69.9992 207.7034 0003298 270.4897  89.5884 14.98330399 76831,6950.192,96.107,574.349,569.764,0.0
55288.0,STARLINK-5311,PAYLOAD,2024-06-04 11:38:18,14.98335093,0.0003338,69.999,206.188,269.5773,90.5004,9.2944e-05,1.016e-05,0.0,0 STARLINK-5311,1 55288U 23010V   24156.48493600  .00001016  00000-0  92944-4 0  9996,2 55288  69.9990 206.1880 0003338 269.5773  90.5004 14.98335093 76616,6950.177,96.107,574.362,569.722,0.0
55288.0,STARLINK-5311,PAYLOAD,2024-06-05 11:40:19,14.98331155,0.0003355,69.999,203.6635,269.7371,90.3403,3.0248e-06,-5.7e-07,0.0,0 STARLINK-5311,1 55288U 23010V   24157.48633885 -.00000057  00000-0  30248-5 0  9993,2 55288  69.9990 203.6635 0003355 269.7371  90.3403 14.98331155 76763,6950.189,96.107,574.386,569.723,0.0
55288.0,STARLINK-5311,PAYLOAD,2024-06-05 13:16:27,14.98331525,0.000335,69.999,203.4951,269.7521,90.3254,6.4015e-06,-1.7e-07,0.0,0 STARLINK-5311,1 55288U 23010V   24157.55309843 -.00000017  00000-0  64015-5 0  9990,2 55288  69.9990 203.4951 0003350 269.7521  90.3254 14.98331525 77085,6950.188,96.107,574.381,569.725,0.0
55288.0,STARLINK-5311,PAYLOAD,2024-06-06 11:42:20,14.98354113,0.0003323,69.9993,201.1397,266.5553,93.5226,-0.00038144,-4.644e-05,0.0,0 STARLINK-5311,1 55288U 23010V   24158.48773251 -.00004644  00000-0 -38144-3 0  9994,2 55288  69.9993 201.1397 0003323 266.5553  93.5226 14.98354113 76910,6950.118,96.105,574.293,569.674,0.0
55288.0,STARLINK-5311,PAYLOAD,2024-06-07 08:32:05,14.98328609,0.0003193,69.9994,198.9511,268.6728,91.4065,3.9439e-05,3.78e-06,0.0,0 STARLINK-5311,1 55288U 23010V   24159.35561753  .00000378  00000-0  39439-4 0  9990,2 55288  69.9994 198.9511 0003193 268.6728  91.4065 14.98328609 77048,6950.197,96.107,574.281,569.843,0.0
55288.0,STARLINK-5311,PAYLOAD,2024-06-07 19:45:01,14.98339029,0.0003335,69.9992,197.7729,269.5891,90.4886,-0.00012821,-1.623e-05,0.0,0 STARLINK-5311,1 55288U 23010V   24159.82293460 -.00001623  00000-0 -12821-3 0  9990,2 55288  69.9992 197.7729 0003335 269.5891  90.4886 14.98339029 77423,6950.165,96.106,574.348,569.712,0.0
55288.0,STARLINK-5311,PAYLOAD,2024-06-08 11:46:22,14.98333143,0.0003296,69.9989,196.0893,269.9521,90.126,4.3512e-05,4.26e-06,0.0,0 STARLINK-5311,1 55288U 23010V   24160.49053389  .00000426  00000-0  43512-4 0  9999,2 55288  69.9989 196.0893 0003296 269.9521  90.1260 14.98333143 77528,6950.183,96.107,574.339,569.757,0.0
55288.0,STARLINK-5311,PAYLOAD,2024-06-08 19:47:02,14.98330382,0.0003363,69.9988,195.2477,271.2212,88.8562,1.4766e-05,8.3e-07,0.0,0 STARLINK-5311,1 55288U 23010V   24160.82433573  .00000083  00000-0  14766-4 0  9991,2 55288  69.9988 195.2477 0003363 271.2212  88.8562 14.98330382 77266,6950.192,96.107,574.394,569.719,0.0
55288.0,STARLINK-5311,PAYLOAD,2024-06-09 05:23:51,14.98323896,0.0003272,69.9989,194.2378,269.9351,90.1433,-5.2807e-05,-7.23e-06,0.0,0 STARLINK-5311,1 55288U 23010V   24161.22490284 -.00000723  00000-0 -52807-4 0  9999,2 55288  69.9989 194.2378 0003272 269.9351  90.1433 14.98323896 77325,6950.212,96.107,574.351,569.803,0.0
55288.0,STARLINK-5311,PAYLOAD,2024-06-09 11:48:24,14.98322823,0.0003229,69.9991,193.5645,268.9096,91.1693,-5.9707e-05,-8.05e-06,0.0,0 STARLINK-5311,1 55288U 23010V   24161.49194464 -.00000805  00000-0 -59707-4 0  9996,2 55288  69.9991 193.5645 0003229 268.9096  91.1693 14.98322823 77670,6950.215,96.107,574.324,569.836,0.0
55288.0,STARLINK-5311,PAYLOAD,2024-06-09 19:49:04,14.98326601,0.0003273,69.9989,192.7224,269.8796,90.1988,-2.6403e-05,-4.08e-06,0.0,0 STARLINK-5311,1 55288U 23010V   24161.82574230 -.00000408  00000-0 -26403-4 0  9992,2 55288  69.9989 192.7224 0003273 269.8796  90.1988 14.98326601 77727,6950.203,96.107,574.343,569.794,0.0
55288.0,STARLINK-5311,PAYLOAD,2024-06-10 05:25:52,14.9832997,0.0003321,69.9986,191.7123,269.9421,90.1358,1.0054e-05,2.7e-07,0.0,0 STARLINK-5311,1 55288U 23010V   24162.22629925  .00000027  00000-0  10054-4 0  9999,2 55288  69.9986 191.7123 0003321 269.9421  90.1358 14.98329970 77476,6950.193,96.107,574.366,569.75,0.0
55288.0,STARLINK-5311,PAYLOAD,2024-06-10 11:50:24,14.98331327,0.0003327,69.9987,191.0389,269.6643,90.4135,2.3213e-06,-6.5e-07,0.0,0 STARLINK-5311,1 55288U 23010V   24162.49333853 -.00000065  00000-0  23213-5 0  9995,2 55288  69.9987 191.0389 0003327 269.6643  90.4135 14.98331327 77827,6950.189,96.107,574.366,569.741,0.0
55288.0,STARLINK-5311,PAYLOAD,2024-06-10 19:51:04,14.98331268,0.0003321,69.9988,190.1972,269.8463,90.2315,3.9611e-05,3.8e-06,0.0,0 STARLINK-5311,1 55288U 23010V   24162.82713745  .00000380  00000-0  39611-4 0  9991,2 55288  69.9988 190.1972 0003321 269.8463  90.2315 14.98331268 77879,6950.189,96.107,574.362,569.746,0.0
55288.0,STARLINK-5311,PAYLOAD,2024-06-11 05:27:53,14.98328073,0.0003359,69.9985,189.1872,269.7321,90.3453,0.0001188,1.325e-05,0.0,0 STARLINK-5311,1 55288U 23010V   24163.22769711  .00001325  00000-0  11880-3 0  9997,2 55288  69.9985 189.1872 0003359 269.7321  90.3453 14.98328073 77623,6950.199,96.107,574.398,569.729,0.0
55288.0,STARLINK-5311,PAYLOAD,2024-06-11 11:52:25,14.98331057,0.0003386,69.9985,188.5141,269.7953,90.2818,0.00011656,1.298e-05,0.0,0 STARLINK-5311,1 55288U 23010V   24163.49473532  .00001298  00000-0  11656-3 0  9999,2 55288  69.9985 188.5141 0003386 269.7953  90.2818 14.98331057 77974,6950.19,96.107,574.408,569.701,0.0
55288.0,STARLINK-5311,PAYLOAD,2024-06-12 05:29:54,14.98328455,0.0003322,69.9986,186.6625,269.8586,90.2192,-1.3507e-05,-2.54e-06,0.0,0 STARLINK-5311,1 55288U 23010V   24164.22910059 -.00000254  00000-0 -13507-4 0  9992,2 55288  69.9986 186.6625 0003322 269.8586  90.2192 14.98328455 77775,6950.198,96.107,574.372,569.754,0.0
55288.0,STARLINK-5311,PAYLOAD,2024-06-12 11:54:26,14.98328842,0.0003322,69.9986,185.9892,270.0421,90.0357,-1.3162e-05,-2.5e-06,0.0,0 STARLINK-5311,1 55288U 23010V   24164.49614033 -.00000250  00000-0 -13162-4 0  9997,2 55288  69.9986 185.9892 0003322 270.0421  90.0357 14.98328842 78126,6950.196,96.107,574.37,569.753,0.0
55288.0,STARLINK-5311,PAYLOAD,2024-06-13 05:31:54,14.98333474,0.0003313,69.9985,184.1377,270.2699,89.808,1.4693e-06,-7.6e-07,0.0,0 STARLINK-5311,1 55288U 23010V   24165.23049599 -.00000076  00000-0  14693-5 0  9995,2 55288  69.9985 184.1377 0003313 270.2699  89.8080 14.98333474 77926,6950.182,96.107,574.35,569.745,0.0
55288.0,STARLINK-5311,PAYLOAD,2024-06-13 10:20:19,14.98333446,0.000329,69.9986,183.6331,268.9858,91.0924,2.359e-06,-6.5e-07,0.0,0 STARLINK-5311,1 55288U 23010V   24165.43077547 -.00000065  00000-0  23590-5 0  9995,2 55288  69.9986 183.6331 0003290 268.9858  91.0924 14.98333446 78265,6950.182,96.107,574.334,569.761,0.0
55288.0,STARLINK-5311,PAYLOAD,2024-06-14 10:22:19,14.98330812,0.0003348,69.9983,181.1081,268.7579,91.3197,4.0365e-05,3.89e-06,0.0,0 STARLINK-5311,1 55288U 23010V   24166.43217452  .00000389  00000-0  40365-4 0  9993,2 55288  69.9983 181.1081 0003348 268.7579  91.3197 14.98330812 78415,6950.19,96.107,574.382,569.728,0.0
55288.0,STARLINK-5311,PAYLOAD,2024-06-14 18:23:00,14.98331869,0.0003341,69.9984,180.2663,268.466,91.6116,2.9625e-05,2.6e-06,0.0,0 STARLINK-5311,1 55288U 23010V   24166.76597368  .00000260  00000-0  29625-4 0  9990,2 55288  69.9984 180.2663 0003341 268.4660  91.6116 14.98331869 78465,6950.187,96.107,574.374,569.73,0.0
55288.0,STARLINK-5311,PAYLOAD,2024-06-15 10:24:20,14.98333511,0.0003331,69.9985,178.5832,268.2521,91.8256,1.1942e-05,4.9e-07,0.0,0 STARLINK-5311,1 55288U 23010V   24167.43357179  .00000049  00000-0  11942-4 0  9997,2 55288  69.9985 178.5832 0003331 268.2521  91.8256 14.98333511 78561,6950.182,96.107,574.362,569.732,0.0
55288.0,STARLINK-5311,PAYLOAD,2024-06-15 18:25:01,14.98330943,0.0003355,69.9983,177.7409,268.0586,92.0189,-9.7779e-06,-2.1e-06,0.0,0 STARLINK-5311,1 55288U 23010V   24167.76737324 -.00000210  00000-0 -97779-5 0  9992,2 55288  69.9983 177.7409 0003355 268.0586  92.0189 14.98330943 78615,6950.19,96.107,574.387,569.723,0.0
55288.0,STARLINK-5311,PAYLOAD,2024-06-16 10:26:21,14.9833005,0.0003348,69.9983,176.0582,268.641,91.4366,-1.1843e-05,-2.34e-06,0.0,0 STARLINK-5311,1 55288U 23010V   24168.43497371 -.00000234  00000-0 -11843-4 0  9995,2 55288  69.9983 176.0582 0003348 268.6410  91.4366 14.98330050 78713,6950.193,96.107,574.385,569.731,0.0
55288.0,STARLINK-5311,PAYLOAD,2024-06-17 10:28:22,14.9833107,0.0003344,69.9983,173.5333,268.7799,91.2977,-2.4337e-06,-1.22e-06,0.0,0 STARLINK-5311,1 55288U 23010V   24169.43637291 -.00000122  00000-0 -24337-5 0  9992,2 55288  69.9983 173.5333 0003344 268.7799  91.2977 14.98331070 78861,6950.19,96.107,574.379,569.73,0.0
55288.0,STARLINK-5311,PAYLOAD,2024-06-18 10:30:23,14.98331182,0.0003333,69.9982,171.0084,269.0568,91.0209,4.8944e-05,4.91e-06,0.0,0 STARLINK-5311,1 55288U 23010V   24170.43777069  .00000491  00000-0  48944-4 0  9998,2 55288  69.9982 171.0084 0003333 269.0568  91.0209 14.98331182 78705,6950.189,96.107,574.371,569.738,0.0
